[
  {
    "name_ko": "히토시 본점",
    "name_ja": "ひとし 本店",
    "category": "food",
    "lat": 24.344444444444445,
    "lng": 124.15244444444444,
    "address_ja": "沖縄県石垣市新栄町15-8",
    "map_link_google": "https://maps.google.com/?q=24.344444,124.152444",
    "map_link_apple": "http://maps.apple.com/?ll=24.344444,124.152444&q=%E3%81%B2%E3%81%A8%E3%81%97%20%E6%9C%AC%E5%BA%97",
    "hours": "16:30–23:00 (L.O.22:00)／不定休",
    "note_ko": "참치·해산물 인기, 예약 난이도 높음",
    "note_ja": "本マグロ名物、予約困難店",
    "photos": [],
    "google_rating": null,
    "source_tags": ["tabelog", "yahoo_travel", "instagram"],
    "last_verified_at": "2025-08-10T00:00:00+09:00",
    "is_active": true
  },
  {
    "name_ko": "히토시 이시간도점",
    "name_ja": "ひとし 石敢當店",
    "category": "food",
    "lat": 24.338708,
    "lng": 124.157365,
    "address_ja": "沖縄県石垣市大川197-1",
    "map_link_google": "https://maps.google.com/?q=24.338708,124.157365",
    "map_link_apple": "http://maps.apple.com/?ll=24.338708,124.157365&q=%E3%81%B2%E3%81%A8%E3%81%97%20%E7%9F%B3%E6%95%A2%E7%95%B6%E5%BA%97",
    "hours": "16:30–23:00／日曜休",
    "note_ko": "본점과 메뉴 유사, 번화가 근처",
    "note_ja": "本店と同様の人気店",
    "photos": [],
    "google_rating": null,
    "source_tags": ["navitime", "blog"],
    "last_verified_at": "2025-08-10T00:00:00+09:00",
    "is_active": true
  },
  {
    "name_ko": "기타우치 목장 하마사키 본점",
    "name_ja": "石垣島きたうち牧場 浜崎本店",
    "category": "food",
    "lat": 24.343214,
    "lng": 124.153344,
    "address_ja": "沖縄県石垣市浜崎町2-3-24",
    "map_link_google": "https://maps.google.com/?q=24.343214,124.153344",
    "map_link_apple": "http://maps.apple.com/?ll=24.343214,124.153344&q=%E7%9F%B3%E5%9E%A3%E5%B3%B6%E3%81%8D%E3%81%9F%E3%81%86%E3%81%A1%E7%89%A7%E5%A0%B4%20%E6%B5%9C%E5%B4%8E%E6%9C%AC%E5%BA%97",
    "hours": "11:30–14:30, 16:30–22:00 (L.O.21:30)／無休",
    "note_ko": "목장 직영 야키니쿠",
    "note_ja": "牧場直営焼肉",
    "photos": [],
    "google_rating": null,
    "source_tags": ["navitime", "official", "gnavi"],
    "last_verified_at": "2025-08-10T00:00:00+09:00",
    "is_active": true
  },
  {
    "name_ko": "스시카이센 아케보노",
    "name_ja": "寿司海鮮 あけぼの",
    "category": "food",
    "lat": 24.3398389,
    "lng": 124.1550604,
    "address_ja": "沖縄県石垣市美崎町12-11",
    "map_link_google": "https://maps.google.com/?q=24.339839,124.155060",
    "map_link_apple": "http://maps.apple.com/?ll=24.339839,124.155060&q=%E5%AF%BF%E5%8F%B8%E6%B5%B7%E9%AE%AE%20%E3%81%82%E3%81%91%E3%81%BC%E3%81%AE",
    "hours": "18:00–23:00／日曜休",
    "note_ko": "로컬 인기 초밥·해산물",
    "note_ja": "老舗の寿司・海鮮",
    "photos": [],
    "google_rating": null,
    "source_tags": ["tabelog", "yahoo_map", "mapfan"],
    "last_verified_at": "2025-08-10T00:00:00+09:00",
    "is_active": true
  },
  {
    "name_ko": "토후노 히가",
    "name_ja": "とうふの比嘉",
    "category": "food",
    "lat": 24.340203,
    "lng": 124.1674,
    "address_ja": "沖縄県石垣市字石垣570",
    "map_link_google": "https://maps.google.com/?q=24.340203,124.167400",
    "map_link_apple": "http://maps.apple.com/?ll=24.340203,124.167400&q=%E3%81%A8%E3%81%86%E3%81%B5%E3%81%AE%E6%AF%94%E5%98%89",
    "hours": "6:30–15:00（売切次第終了）／日曜休",
    "note_ko": "아침 유시두부 정식",
    "note_ja": "朝食向けゆし豆腐",
    "photos": [],
    "google_rating": null,
    "source_tags": ["navitime", "tabelog", "rurubu"],
    "last_verified_at": "2025-08-10T00:00:00+09:00",
    "is_active": true
  },
  {
    "name_ko": "바닐라 델리",
    "name_ja": "VANILLA・DELI",
    "category": "food",
    "lat": 24.338438,
    "lng": 124.153122,
    "address_ja": "沖縄県石垣市石垣12-2 1F",
    "map_link_google": "https://maps.google.com/?q=24.338438,124.153122",
    "map_link_apple": "http://maps.apple.com/?ll=24.338438,124.153122&q=VANILLA%E3%83%BBDELI",
    "hours": "11:00–18:00（売切次第終了）／不定休",
    "note_ko": "이시가키규 100% 버거 테이크아웃",
    "note_ja": "石垣牛100%バーガー",
    "photos": [],
    "google_rating": null,
    "source_tags": ["navitime", "official", "hotpepper"],
    "last_verified_at": "2025-08-10T00:00:00+09:00",
    "is_active": true
  },
  {
    "name_ko": "코너스 그릴",
    "name_ja": "CORNER’S GRILL",
    "category": "food",
    "lat": 24.341093,
    "lng": 124.153609,
    "address_ja": "沖縄県石垣市大川258-1 城西ビル1F",
    "map_link_google": "https://maps.google.com/?q=24.341093,124.153609",
    "map_link_apple": "http://maps.apple.com/?ll=24.341093,124.153609&q=CORNER%E2%80%99S%20GRILL",
    "hours": "11:00〜完売次第終了／不定休",
    "note_ko": "이시가키규 스테이크·버거, 완판 종료",
    "note_ja": "JA石垣牛、売切次第終了",
    "photos": [],
    "google_rating": null,
    "source_tags": ["navitime", "tabelog", "official"],
    "last_verified_at": "2025-08-10T00:00:00+09:00",
    "is_active": true
  },
  {
    "name_ko": "우사기야 본점",
    "name_ja": "うさぎや 本店",
    "category": "food",
    "lat": 24.340677,
    "lng": 124.156376,
    "address_ja": "沖縄県石垣市石垣1-1 仲村ハイツ1F",
    "map_link_google": "https://maps.google.com/?q=24.340677,124.156376",
    "map_link_apple": "http://maps.apple.com/?ll=24.340677,124.156376&q=%E3%81%86%E3%81%95%E3%81%8E%E3%82%84%20%E6%9C%AC%E5%BA%97",
    "hours": "17:00–23:00／無休（要確認）",
    "note_ko": "민요 라이브 있는 이자카야",
    "note_ja": "民謡ライブ居酒屋",
    "photos": [],
    "google_rating": null,
    "source_tags": ["navitime", "official", "tabelog"],
    "last_verified_at": "2025-08-10T00:00:00+09:00",
    "is_active": true
  },
  {
    "name_ko": "미루미루 혼포 본점",
    "name_ja": "ミルミル本舗 本店",
    "category": "food",
    "lat": 24.369682,
    "lng": 124.120619,
    "address_ja": "沖縄県石垣市新川1583-74",
    "map_link_google": "https://maps.google.com/?q=24.369682,124.120619",
    "map_link_apple": "http://maps.apple.com/?ll=24.369682,124.120619&q=%E3%83%9F%E3%83%AB%E3%83%9F%E3%83%AB%E6%9C%AC%E8%88%97%20%E6%9C%AC%E5%BA%97",
    "hours": "10:00–19:00（冬季18:30）／無休（台風除く）",
    "note_ko": "언덕뷰 제라토·버거",
    "note_ja": "丘の上のジェラート",
    "photos": [],
    "google_rating": null,
    "source_tags": ["navitime", "official", "tabelog"],
    "last_verified_at": "2025-08-10T00:00:00+09:00",
    "is_active": true
  },
  {
    "name_ko": "ALOALO 카페",
    "name_ja": "アロアロカフェ（ALOALO CAFE）",
    "category": "food",
    "lat": 24.450936,
    "lng": 124.164018,
    "address_ja": "沖縄県石垣市字川平1215-228 ALOALO BEACH 川平",
    "map_link_google": "https://maps.google.com/?q=24.450936,124.164018",
    "map_link_apple": "http://maps.apple.com/?ll=24.450936,124.164018&q=%E3%82%A2%E3%83%AD%E3%82%A2%E3%83%AD%E3%82%AB%E3%83%95%E3%82%A7",
    "hours": "11:00–15:30（L.O.15:00）／土日祝休（変動あり）",
    "note_ko": "카비라만 전망 테라스",
    "note_ja": "川平湾を望むカフェ",
    "photos": [],
    "google_rating": null,
    "source_tags": ["tabelog", "navitime"],
    "last_verified_at": "2025-08-10T00:00:00+09:00",
    "is_active": true
  },
  {
    "name_ko": "카페 쿠이나",
    "name_ja": "Cafe Kuina",
    "category": "food",
    "lat": 24.458968,
    "lng": 124.13944,
    "address_ja": "沖縄県石垣市川平926-1",
    "map_link_google": "https://maps.google.com/?q=24.458968,124.139440",
    "map_link_apple": "http://maps.apple.com/?ll=24.458968,124.139440&q=Cafe%20Kuina",
    "hours": "7:00–16:00／火水休",
    "note_ko": "카비라 공원 근처 조식·브런치",
    "note_ja": "川平公園そばの朝カフェ",
    "photos": [],
    "google_rating": null,
    "source_tags": ["official", "navitime", "retty"],
    "last_verified_at": "2025-08-10T00:00:00+09:00",
    "is_active": true
  },
  {
    "name_ko": "디코프리오 피자 프리타",
    "name_ja": "DICOPRIO Pizza Fritta",
    "category": "food",
    "lat": 24.456955,
    "lng": 124.135878,
    "address_ja": "沖縄県石垣市川平917-1",
    "map_link_google": "https://maps.google.com/?q=24.456955,124.135878",
    "map_link_apple": "http://maps.apple.com/?ll=24.456955,124.135878&q=DICOPRIO%20Pizza%20Fritta",
    "hours": "12:00–19:00／火休",
    "note_ko": "나폴리식 튀긴 피자",
    "note_ja": "ナポリ式揚げピザ",
    "photos": [],
    "google_rating": null,
    "source_tags": ["tabelog", "yahoo_map"],
    "last_verified_at": "2025-08-10T00:00:00+09:00",
    "is_active": true
  },
  {
    "name_ko": "쿠나츠유",
    "name_ja": "来夏世（くなつゆ）",
    "category": "food",
    "lat": 24.344213,
    "lng": 124.157161,
    "address_ja": "沖縄県石垣市石垣203",
    "map_link_google": "https://maps.google.com/?q=24.344213,124.157161",
    "map_link_apple": "http://maps.apple.com/?ll=24.344213,124.157161&q=%E6%9D%A5%E5%A4%8F%E4%B8%96%EF%BC%88%E3%81%8F%E3%81%AA%E3%81%A4%E3%82%86%EF%BC%89",
    "hours": "10:00–14:00／水木日休",
    "note_ko": "야에야마 소바 명점",
    "note_ja": "八重山そば専門",
    "photos": [],
    "google_rating": null,
    "source_tags": ["navitime", "tabelog"],
    "last_verified_at": "2025-08-10T00:00:00+09:00",
    "is_active": true
  },
  {
    "name_ko": "시마소바 이치반치",
    "name_ja": "島そば一番地 石垣本店",
    "category": "food",
    "lat": 24.339408,
    "lng": 124.154267,
    "address_ja": "沖縄県石垣市字石垣1-1",
    "map_link_google": "https://maps.google.com/?q=24.339408,124.154267",
    "map_link_apple": "http://maps.apple.com/?ll=24.339408,124.154267&q=%E5%B3%B6%E3%81%9D%E3%81%B0%E4%B8%80%E7%95%AA%E5%9C%B0%20%E7%9F%B3%E5%9E%A3%E6%9C%AC%E5%BA%97",
    "hours": "10:30–15:30／18:00–21:30（木夜休）",
    "note_ko": "도심 인기 소바집",
    "note_ja": "市街地の人気そば",
    "photos": [],
    "google_rating": null,
    "source_tags": ["navitime", "tabelog"],
    "last_verified_at": "2025-08-10T00:00:00+09:00",
    "is_active": true
  },
  {
    "name_ko": "타이라 쇼텐",
    "name_ja": "平良商店",
    "category": "food",
    "lat": 24.333187,
    "lng": 124.161066,
    "address_ja": "沖縄県石垣市登野城506 マンタパークサイド1F",
    "map_link_google": "https://maps.google.com/?q=24.333187,124.161066",
    "map_link_apple": "http://maps.apple.com/?ll=24.333187,124.161066&q=%E5%B9%B3%E8%89%AF%E5%95%86%E5%BA%97",
    "hours": "11:30–14:00／不定休",
    "note_ko": "카라미소 소바로 유명",
    "note_ja": "辛味噌そばが人気",
    "photos": [],
    "google_rating": null,
    "source_tags": ["navitime", "tabelog", "churaguru"],
    "last_verified_at": "2025-08-10T00:00:00+09:00",
    "is_active": true
  }
]
